{
  "norad_id": 64691,
  "name": "LYRA-4",
  "history": [
    {
      "epoch": "2026-04-13T07:36:20.654208Z",
      "apogee_km": 663.5846695052551,
      "perigee_km": 643.5861696750444,
      "latitude_deg": 3.402344016665301e-05,
      "longitude_deg": -74.95668836959568,
      "height_km": 652.7605406197283,
      "semi_major_axis_km": 7031.72241959015,
      "eccentricity": 0.00142202,
      "inclination_deg": 95.9961,
      "raan_deg": 240.6388,
      "arg_perigee_deg": 67.3323,
      "mean_anomaly_deg": 292.9392,
      "mean_motion_rev_day": 14.72347029
    },
    {
      "epoch": "2026-04-14T19:29:21.983136Z",
      "apogee_km": 663.5126327036833,
      "perigee_km": 643.6452225218063,
      "latitude_deg": -6.915262449891698e-05,
      "longitude_deg": 106.41849554137384,
      "height_km": 652.0937095354985,
      "semi_major_axis_km": 7031.715927612745,
      "eccentricity": 0.0014127,
      "inclination_deg": 95.9964,
      "raan_deg": 241.7432,
      "arg_perigee_deg": 62.9627,
      "mean_anomaly_deg": 297.3025,
      "mean_motion_rev_day": 14.72349068
    },
    {
      "epoch": "2026-04-15T08:32:16.979712Z",
      "apogee_km": 663.4895954833864,
      "perigee_km": 643.6646619374651,
      "latitude_deg": -1.4142802081048053e-05,
      "longitude_deg": -89.44484898719925,
      "height_km": 651.8538387545,
      "semi_major_axis_km": 7031.714128710425,
      "eccentricity": 0.00140968,
      "inclination_deg": 95.9965,
      "raan_deg": 242.1449,
      "arg_perigee_deg": 61.3391,
      "mean_anomaly_deg": 298.9237,
      "mean_motion_rev_day": 14.72349633
    },
    {
      "epoch": "2026-04-16T15:31:42.478752Z",
      "apogee_km": 663.4309884843078,
      "perigee_km": 643.7084574677056,
      "latitude_deg": -7.353064382488928e-05,
      "longitude_deg": 165.38008255384688,
      "height_km": 651.3025796288673,
      "semi_major_axis_km": 7031.706722976007,
      "eccentricity": 0.0014024,
      "inclination_deg": 95.9968,
      "raan_deg": 243.0988,
      "arg_perigee_deg": 57.4911,
      "mean_anomaly_deg": 302.7654,
      "mean_motion_rev_day": 14.72351959
    },
    {
      "epoch": "2026-04-17T09:28:12.988128Z",
      "apogee_km": 663.3852914257377,
      "perigee_km": 643.7468697940876,
      "latitude_deg": -1.1674273704871758e-05,
      "longitude_deg": -103.93158906332683,
      "height_km": 651.0020422943328,
      "semi_major_axis_km": 7031.703080609912,
      "eccentricity": 0.00139642,
      "inclination_deg": 95.9969,
      "raan_deg": 243.6511,
      "arg_perigee_deg": 55.2447,
      "mean_anomaly_deg": 305.0078,
      "mean_motion_rev_day": 14.72353103
    },
    {
      "epoch": "2026-04-18T14:49:46.375104Z",
      "apogee_km": 663.3129935752522,
      "perigee_km": 643.8056616232261,
      "latitude_deg": 3.2599783007797846e-05,
      "longitude_deg": 175.37725206074447,
      "height_km": 650.5339816561154,
      "semi_major_axis_km": 7031.696327599238,
      "eccentricity": 0.0013871,
      "inclination_deg": 95.9971,
      "raan_deg": 244.5548,
      "arg_perigee_deg": 51.5832,
      "mean_anomaly_deg": 308.6624,
      "mean_motion_rev_day": 14.72355224
    },
    {
      "epoch": "2026-04-19T20:11:19.641984Z",
      "apogee_km": 663.2668264958857,
      "perigee_km": 643.8396726743322,
      "latitude_deg": 8.017601837448088e-05,
      "longitude_deg": 94.68669285280474,
      "height_km": 650.0883439894935,
      "semi_major_axis_km": 7031.690249585108,
      "eccentricity": 0.0013814,
      "inclination_deg": 95.9974,
      "raan_deg": 245.4586,
      "arg_perigee_deg": 47.9817,
      "mean_anomaly_deg": 312.257,
      "mean_motion_rev_day": 14.72357133
    }
  ]
}